[{"OBJECT_NAME":"STARLINK-31956","OBJECT_ID":"2024-106J","EPOCH":"2026-03-08T04:31:34.799808","MEAN_MOTION":15.27591276,"ECCENTRICITY":9.028e-5,"INCLINATION":43.0006,"RA_OF_ASC_NODE":340.967,"ARG_OF_PERICENTER":260.5874,"MEAN_ANOMALY":99.4876,"EPHEMERIS_TYPE":0,"CLASSIFICATION_TYPE":"U","NORAD_CAT_ID":59930,"ELEMENT_SET_NO":999,"REV_AT_EPOCH":10029,"BSTAR":0.00017239806,"MEAN_MOTION_DOT":4.487e-5,"MEAN_MOTION_DDOT":0},{"OBJECT_NAME":"REAL","OBJECT_ID":"2025-154G","EPOCH":"2026-03-09T17:20:09.670560","MEAN_MOTION":15.28408058,"ECCENTRICITY":0.00018528,"INCLINATION":97.4133,"RA_OF_ASC_NODE":137.2581,"ARG_OF_PERICENTER":118.5876,"MEAN_ANOMALY":241.555,"EPHEMERIS_TYPE":0,"CLASSIFICATION_TYPE":"U","NORAD_CAT_ID":64875,"ELEMENT_SET_NO":999,"REV_AT_EPOCH":3483,"BSTAR":0.0008290401,"MEAN_MOTION_DOT":0.00022901,"MEAN_MOTION_DDOT":0}]
